NORAD_CAT_ID,OBJECT_NAME,OBJECT_TYPE,EPOCH,MEAN_MOTION,ECCENTRICITY,INCLINATION,RA_OF_ASC_NODE,ARG_OF_PERICENTER,MEAN_ANOMALY,BSTAR,MEAN_MOTION_DOT,MEAN_MOTION_DDOT,TLE_LINE0,TLE_LINE1,TLE_LINE2,SEMIMAJOR_AXIS,PERIOD,APOGEE,PERIGEE,DECAYED
52831.0,STARLINK-4089,PAYLOAD,2023-01-01 20:45:49,15.08833748,0.000157,53.2157,214.2405,64.3526,295.7628,-0.0001565999999999,-2.779e-05,0.0,0 STARLINK-4089,1 52831U 22062B   23001.86516080 -.00002779  00000-0 -15660-3 0  9999,2 52831  53.2157 214.2405 0001570  64.3526 295.7628 15.08833748 30235,6917.899,95.438,540.851,538.678,0.0
52831.0,STARLINK-4089,PAYLOAD,2023-01-01 22:21:13,15.08837785,0.00015,53.2157,213.9433,64.4566,295.6581,-0.00011564,-2.128e-05,0.0,0 STARLINK-4089,1 52831U 22062B   23001.93140133 -.00002128  00000-0 -11564-3 0  9996,2 52831  53.2157 213.9433 0001500  64.4566 295.6581 15.08837785 30748,6917.887,95.438,540.79,538.714,0.0
52831.0,STARLINK-4089,PAYLOAD,2023-01-02 14:15:04,15.08844047,0.0001541999999999,53.2164,210.9696,67.5435,292.572,-4.0246e-05,-9.29e-06,0.0,0 STARLINK-4089,1 52831U 22062B   23002.59380044 -.00000929  00000-0 -40246-4 0  9993,2 52831  53.2164 210.9696 0001542  67.5435 292.5720 15.08844047 30345,6917.868,95.437,540.8,538.6659999999998,0.0
52831.0,STARLINK-4089,PAYLOAD,2023-01-02 20:36:36,15.08844698,0.000157,53.2164,209.78,67.8362,292.2796,-2.7406e-05,-7.24e-06,0.0,0 STARLINK-4089,1 52831U 22062B   23002.85875899 -.00000724  00000-0 -27406-4 0  9995,2 52831  53.2164 209.7800 0001570  67.8362 292.2796 15.08844698 30387,6917.866,95.437,540.817,538.645,0.0
52831.0,STARLINK-4089,PAYLOAD,2023-01-03 06:08:55,15.08843487,0.0001541,53.2167,207.9959,68.7783,291.3374,5.9087e-05,6.53e-06,0.0,0 STARLINK-4089,1 52831U 22062B   23003.25619888  .00000653  00000-0  59087-4 0  9993,2 52831  53.2167 207.9959 0001541  68.7783 291.3374 15.08843487 30949,6917.87,95.437,540.8009999999998,538.669,0.0
52831.0,STARLINK-4089,PAYLOAD,2023-01-03 14:05:51,15.08834383,0.0001524,53.2171,206.5081,74.1315,285.9845,0.00012193,1.653e-05,0.0,0 STARLINK-4089,1 52831U 22062B   23003.58740401  .00001653  00000-0  12193-3 0  9992,2 52831  53.2171 206.5081 0001524  74.1315 285.9845 15.08834383 30990,6917.898,95.438,540.817,538.7080000000002,0.0
52831.0,STARLINK-4089,PAYLOAD,2023-01-03 22:02:47,15.08828495,0.0001394,53.2164,205.0216,67.8798,292.2342,4.096800000000001e-05,3.64e-06,0.0,0 STARLINK-4089,1 52831U 22062B   23003.91861102  .00000364  00000-0  40968-4 0  9991,2 52831  53.2164 205.0216 0001394  67.8798 292.2342 15.08828495 31042,6917.916,95.438,540.745,538.816,0.0
52831.0,STARLINK-4089,PAYLOAD,2023-01-04 21:53:34,15.08836529,0.0001372,53.2161,200.5608,67.3211,292.7926,5.6234e-05,6.07e-06,0.0,0 STARLINK-4089,1 52831U 22062B   23004.91221040  .00000607  00000-0  56234-4 0  9996,2 52831  53.2161 200.5608 0001372  67.3211 292.7926 15.08836529 31191,6917.891,95.438,540.705,538.807,0.0
52831.0,STARLINK-4089,PAYLOAD,2023-01-05 05:50:30,15.08842361,0.0001465999999999,53.2165,199.0742,67.7387,292.3761,5.9702e-05,6.62e-06,0.0,0 STARLINK-4089,1 52831U 22062B   23005.24340710  .00000662  00000-0  59702-4 0  9993,2 52831  53.2165 199.0742 0001466  67.7387 292.3761 15.08842361 30742,6917.873000000001,95.437,540.752,538.724,0.0
52831.0,STARLINK-4089,PAYLOAD,2023-01-05 15:22:49,15.08842419,0.0001349,53.2164,197.2892,65.528,294.5852,0.00011707,1.576e-05,0.0,0 STARLINK-4089,1 52831U 22062B   23005.64084507  .00001576  00000-0  11707-3 0  9993,2 52831  53.2164 197.2892 0001349  65.5280 294.5852 15.08842419 30801,6917.873000000001,95.437,540.6709999999998,538.805,0.0
52831.0,STARLINK-4089,PAYLOAD,2023-01-06 05:41:17,15.08838794,0.0001496,53.2159,194.6136,66.7544,293.3606,0.00012329,1.675e-05,0.0,0 STARLINK-4089,1 52831U 22062B   23006.23700883  .00001675  00000-0  12329-3 0  9992,2 52831  53.2159 194.6136 0001496  66.7544 293.3606 15.08838794 31396,6917.884,95.438,540.784,538.714,0.0
52831.0,STARLINK-4089,PAYLOAD,2023-01-06 21:35:09,15.08838075,0.0001545,53.216,191.64,67.9742,292.1414,4.689600000000001e-05,4.58e-06,0.0,0 STARLINK-4089,1 52831U 22062B   23006.89941213  .00000458  00000-0  46896-4 0  9993,2 52831  53.2160 191.6400 0001545  67.9742 292.1414 15.08838075 30998,6917.886,95.438,540.82,538.682,0.0
52831.0,STARLINK-4089,PAYLOAD,2023-01-07 11:53:36,15.0884595,0.0001631999999999,53.2163,188.9635,68.5276,291.589,6.7808e-05,7.91e-06,0.0,0 STARLINK-4089,1 52831U 22062B   23007.49556661  .00000791  00000-0  67808-4 0  9995,2 52831  53.2163 188.9635 0001632  68.5276 291.5890 15.08845950 31583,6917.861999999999,95.437,540.856,538.5980000000002,0.0
52831.0,STARLINK-4089,PAYLOAD,2023-01-07 21:25:55,15.08843517,0.0001364,53.2167,187.179,66.8932,293.2204,2.9991e-05,1.89e-06,0.0,0 STARLINK-4089,1 52831U 22062B   23007.89300791  .00000189  00000-0  29991-4 0  9992,2 52831  53.2167 187.1790 0001364  66.8932 293.2204 15.08843517 31149,6917.87,95.437,540.678,538.7909999999998,0.0
52831.0,STARLINK-4089,PAYLOAD,2023-01-08 05:22:52,15.08835618,0.000132,53.2163,185.6929,70.2407,289.8727,-1.5463e-05,-5.34e-06,0.0,0 STARLINK-4089,1 52831U 22062B   23008.22421397 -.00000534  00000-0 -15463-4 0  9991,2 52831  53.2163 185.6929 0001320  70.2407 289.8727 15.08835618 31694,6917.894,95.438,540.672,538.846,0.0
52831.0,STARLINK-4089,PAYLOAD,2023-01-08 11:44:24,15.08832322,0.0001415,53.217,184.5039,67.5721,292.5421,5.465e-05,5.82e-06,0.0,0 STARLINK-4089,1 52831U 22062B   23008.48917528  .00000582  00000-0  54650-4 0  9997,2 52831  53.2170 184.5039 0001415  67.5721 292.5421 15.08832322 31236,6917.904,95.438,540.748,538.79,0.0
52831.0,STARLINK-4089,PAYLOAD,2023-01-08 18:05:57,15.08836974,0.0001530999999999,53.2165,183.3142,67.9162,292.1993,8.6696e-05,1.092e-05,0.0,0 STARLINK-4089,1 52831U 22062B   23008.75413314  .00001092  00000-0  86696-4 0  9993,2 52831  53.2165 183.3142 0001531  67.9162 292.1993 15.08836974 31275,6917.89,95.438,540.814,538.696,0.0
52831.0,STARLINK-4089,PAYLOAD,2023-01-09 13:10:33,15.08863105,0.0001591,53.2164,179.7457,73.3893,286.7274,-5.8621000000000014e-05,-1.222e-05,0.0,0 STARLINK-4089,1 52831U 22062B   23009.54900136 -.00001222  00000-0 -58621-4 0  9998,2 52831  53.2164 179.7457 0001591  73.3893 286.7274 15.08863105 31390,6917.81,95.436,540.775,538.5740000000002,0.0
52831.0,STARLINK-4089,PAYLOAD,2023-01-10 11:25:57,15.08849186,0.0001667,53.2152,175.581,79.2378,280.8802,0.00016978,2.416e-05,0.0,0 STARLINK-4089,1 52831U 22062B   23010.47636364  .00002416  00000-0  16978-3 0  9993,2 52831  53.2152 175.5810 0001667  79.2378 280.8802 15.08849186 32038,6917.852,95.437,540.871,538.564,0.0
52831.0,STARLINK-4089,PAYLOAD,2023-01-10 17:47:30,15.08836164,0.0001419,53.2159,174.3927,62.2288,297.8848,-3.448e-05,-8.37e-06,0.0,0 STARLINK-4089,1 52831U 22062B   23010.74132937 -.00000837  00000-0 -34480-4 0  9996,2 52831  53.2159 174.3927 0001419  62.2288 297.8848 15.08836164 32072,6917.892,95.438,540.739,538.775,0.0
52831.0,STARLINK-4089,PAYLOAD,2023-01-11 12:52:08,15.08844308,0.0001455,53.2167,170.8245,66.8895,293.2251,1.8335e-05,4e-08,0.0,0 STARLINK-4089,1 52831U 22062B   23011.53620704  .00000004  00000-0  18335-4 0  9993,2 52831  53.2167 170.8245 0001455  66.8895 293.2251 15.08844308 31693,6917.866999999998,95.437,540.739,538.726,0.0
52831.0,STARLINK-4089,PAYLOAD,2023-01-11 19:13:40,15.08839769,0.0001471,53.2162,169.6348,61.9534,298.1607,-0.00011946,-2.189e-05,0.0,0 STARLINK-4089,1 52831U 22062B   23011.80116545 -.00002189  00000-0 -11946-3 0  9994,2 52831  53.2162 169.6348 0001471  61.9534 298.1607 15.08839769 32237,6917.880999999999,95.438,540.764,538.7280000000002,0.0
52831.0,STARLINK-4089,PAYLOAD,2023-01-12 03:10:37,15.08826864,0.0001344,53.2168,168.148,49.0696,311.0412,3.2524e-05,2.3e-06,0.0,0 STARLINK-4089,1 52831U 22062B   23012.13237760  .00000230  00000-0  32524-4 0  9993,2 52831  53.2168 168.1480 0001344  49.0696 311.0412 15.08826864 32285,6917.920999999999,95.438,540.715,538.856,0.0
52831.0,STARLINK-4089,PAYLOAD,2023-01-12 19:04:29,15.08828333,0.0001385,53.2168,165.1751,63.1053,297.0081,6.8925e-05,8.09e-06,0.0,0 STARLINK-4089,1 52831U 22062B   23012.79478055  .00000809  00000-0  68925-4 0  9995,2 52831  53.2168 165.1751 0001385  63.1053 297.0081 15.08828333 31885,6917.916,95.438,540.739,538.823,0.0
52831.0,STARLINK-4089,PAYLOAD,2023-01-13 12:33:43,15.08838605,0.0001409,53.2167,161.9048,63.396,296.7177,5.7726e-05,6.31e-06,0.0,0 STARLINK-4089,1 52831U 22062B   23013.52341835  .00000631  00000-0  57726-4 0  9992,2 52831  53.2167 161.9048 0001409  63.3960 296.7177 15.08838605 32496,6917.885,95.438,540.724,538.775,0.0
52831.0,STARLINK-4089,PAYLOAD,2023-01-14 15:35:16,15.08843944,0.0001793,53.214,156.8507,76.1638,283.9553,0.00024392,3.596e-05,0.0,0 STARLINK-4089,1 52831U 22062B   23014.64949965  .00003596  00000-0  24392-3 0  9999,2 52831  53.2140 156.8507 0001793  76.1638 283.9553 15.08843944 32667,6917.868,95.437,540.974,538.493,0.0
52831.0,STARLINK-4089,PAYLOAD,2023-01-15 02:42:58,15.08837695,0.0001764,53.2108,154.7687,80.3483,279.7708,0.00011005,1.464e-05,0.0,0 STARLINK-4089,1 52831U 22062B   23015.11318275  .00001464  00000-0  11005-3 0  9995,2 52831  53.2108 154.7687 0001764  80.3483 279.7708 15.08837695 32739,6917.887,95.438,540.9730000000001,538.5319999999999,0.0
52831.0,STARLINK-4089,PAYLOAD,2023-01-15 13:50:41,15.08838173,0.0001718,53.2137,152.6874,80.5642,279.5544,6.493e-05,7.45e-06,0.0,0 STARLINK-4089,1 52831U 22062B   23015.57686434  .00000745  00000-0  64930-4 0  9997,2 52831  53.2137 152.6874 0001718  80.5642 279.5544 15.08838173 32305,6917.886,95.438,540.939,538.562,0.0
52831.0,STARLINK-4089,PAYLOAD,2023-01-15 18:36:50,15.08846937,0.0001335,53.2147,151.79399999999998,83.0177,277.0966,0.00017071,2.43e-05,0.0,0 STARLINK-4089,1 52831U 22062B   23015.77557900  .00002430  00000-0  17071-3 0  9990,2 52831  53.2147 151.7940 0001335  83.0177 277.0966 15.08846937 32337,6917.859,95.437,540.648,538.8009999999999,0.0
